[ {
  "OBJECT_ID": "1993-061A",
  "OBJECT_NAME": "SPOT 3",
  "NORAD_CAT_ID": "22823",
  "OBJECT_TYPE": "PAYLOAD",
  "PERIOD": "101.469",
  "INCLINATION": "98.9009",
  "APOGEE": "840.854",
  "PERIGEE": "815.617",
  "ECCENTRICITY": "0.001751",
  "MEAN_MOTION": "14.1914842",
  "TLE_LINE1": "1 22823U 93061A   16238.85198631 -.00000005 +00000-0 +19305-4 0  9995",
  "TLE_LINE2": "2 22823 098.9009 194.1546 0017510 027.9452 332.2660 14.19148420186378",
  "LAUNCH_DATE": "1993-09-26",
  "LAUNCH_SITE": "FRENCH GUIANA",
  "OWNER": "FRANCE",
  "ORBIT_TYPE": "Low Earth Orbit",
  "OPERATIONAL_STATUS": "Nonoperational"
}, {
  "OBJECT_ID": "1993-061E",
  "OBJECT_NAME": "HEALTHSAT 1",
  "NORAD_CAT_ID": "22827",
  "OBJECT_TYPE": "PAYLOAD",
  "PERIOD": "100.617",
  "INCLINATION": "98.7693",
  "APOGEE": "795.061",
  "PERIGEE": "780.628",
  "ECCENTRICITY": "0.0010071",
  "MEAN_MOTION": "14.31163885",
  "TLE_LINE1": "1 22827U 93061E   16239.54493946  .00000033  00000-0  29802-4 0  9996",
  "TLE_LINE2": "2 22827  98.7693 201.2372 0010071  72.0200  44.4270 14.31163885195873",
  "LAUNCH_DATE": "1993-09-26",
  "LAUNCH_SITE": "FRENCH GUIANA",
  "OWNER": "UNITED STATES OF AMERICA",
  "ORBIT_TYPE": "Low Earth Orbit",
  "OPERATIONAL_STATUS": "Nonoperational"
}, {
  "OBJECT_ID": "1993-061F",
  "OBJECT_NAME": "ITAMSAT",
  "NORAD_CAT_ID": "22828",
  "OBJECT_TYPE": "PAYLOAD",
  "PERIOD": "100.656",
  "INCLINATION": "98.7509",
  "APOGEE": "797.635",
  "PERIGEE": "781.814",
  "ECCENTRICITY": "0.0011036",
  "MEAN_MOTION": "14.30600973",
  "TLE_LINE1": "1 22828U 93061F   16238.86776704 +.00000005 +00000-0 +19223-4 0  9992",
  "TLE_LINE2": "2 22828 098.7509 194.6074 0011036 075.5975 284.6431 14.30600973163485",
  "LAUNCH_DATE": "1993-09-26",
  "LAUNCH_SITE": "FRENCH GUIANA",
  "OWNER": "ITALY",
  "ORBIT_TYPE": "Low Earth Orbit",
  "OPERATIONAL_STATUS": "Nonoperational"
}, {
  "OBJECT_ID": "1993-061G",
  "OBJECT_NAME": "EYESAT A",
  "NORAD_CAT_ID": "22829",
  "OBJECT_TYPE": "PAYLOAD",
  "PERIOD": "100.633",
  "INCLINATION": "98.7547",
  "APOGEE": "796.373",
  "PERIGEE": "780.829",
  "ECCENTRICITY": "0.0010845",
  "MEAN_MOTION": "14.30937275",
  "TLE_LINE1": "1 22829U 93061G   16238.92452429 +.00000014 +00000-0 +22379-4 0  9991",
  "TLE_LINE2": "2 22829 098.7547 197.1520 0010845 067.5660 345.1939 14.30937275195637",
  "LAUNCH_DATE": "1993-09-26",
  "LAUNCH_SITE": "FRENCH GUIANA",
  "OWNER": "UNITED STATES OF AMERICA",
  "ORBIT_TYPE": "Low Earth Orbit",
  "OPERATIONAL_STATUS": "Nonoperational"
}, {
  "OBJECT_ID": "1994-003B",
  "OBJECT_NAME": "TUBSAT B",
  "NORAD_CAT_ID": "22970",
  "OBJECT_TYPE": "PAYLOAD",
  "PERIOD": "109.343",
  "INCLINATION": "82.5602",
  "APOGEE": "1208.884",
  "PERIGEE": "1183.878",
  "ECCENTRICITY": "0.0016507",
  "MEAN_MOTION": "13.16953399",
  "TLE_LINE1": "1 22970U 94003B   16238.96721196 -.00000155 +00000-0 -43571-3 0  9993",
  "TLE_LINE2": "2 22970 082.5602 095.6856 0016507 157.5565 331.7144 13.16953399085462",
  "LAUNCH_DATE": "1994-01-25",
  "LAUNCH_SITE": "PLESETSK MISSILE AND SPACE COMPLEX",
  "OWNER": "GERMANY",
  "ORBIT_TYPE": "Low Earth Orbit",
  "OPERATIONAL_STATUS": "Nonoperational"
}, {
  "OBJECT_ID": "1994-041A",
  "OBJECT_NAME": "NADEZHDA 4",
  "NORAD_CAT_ID": "23179",
  "OBJECT_TYPE": "PAYLOAD",
  "PERIOD": "104.611",
  "INCLINATION": "82.9494",
  "APOGEE": "1002.850",
  "PERIGEE": "949.644",
  "ECCENTRICITY": "0.0036173",
  "MEAN_MOTION": "13.76522922",
  "TLE_LINE1": "1 23179U 94041A   16239.38868897  .00000031  00000-0  16328-4 0  9996",
  "TLE_LINE2": "2 23179  82.9494 166.1682 0036173  31.7887 107.4971 13.76522922111139",
  "LAUNCH_DATE": "1994-07-14",
  "LAUNCH_SITE": "PLESETSK MISSILE AND SPACE COMPLEX",
  "OWNER": "COMMONWEALTH OF INDEPENDENT STATES",
  "ORBIT_TYPE": "Low Earth Orbit",
  "OPERATIONAL_STATUS": "Nonoperational"
}, {
  "OBJECT_ID": "1994-068A",
  "OBJECT_NAME": "IRS P2",
  "NORAD_CAT_ID": "23323",
  "OBJECT_TYPE": "PAYLOAD",
  "PERIOD": "101.146",
  "INCLINATION": "98.7413",
  "APOGEE": "813.788",
  "PERIGEE": "812.068",
  "ECCENTRICITY": "0.0001196",
  "MEAN_MOTION": "14.23682218",
  "TLE_LINE1": "1 23323U 94068A   16239.49142407  .00000008  00000-0  22898-4 0  9993",
  "TLE_LINE2": "2 23323  98.7413 184.0418 0001196  82.8702 277.2612 14.23682218135538",
  "LAUNCH_DATE": "1994-10-15",
  "LAUNCH_SITE": "SIRHARIKOTA",
  "OWNER": "INDIA",
  "ORBIT_TYPE": "Low Earth Orbit",
  "OPERATIONAL_STATUS": "Nonoperational"
}, {
  "OBJECT_ID": "1994-089A",
  "OBJECT_NAME": "NOAA 14",
  "NORAD_CAT_ID": "23455",
  "OBJECT_TYPE": "PAYLOAD",
  "PERIOD": "101.832",
  "INCLINATION": "98.7184",
  "APOGEE": "851.478",
  "PERIGEE": "839.400",
  "ECCENTRICITY": "0.000836",
  "MEAN_MOTION": "14.14081902",
  "TLE_LINE1": "1 23455U 94089A   16239.33553082 -.00000039  00000-0  23307-5 0  9992",
  "TLE_LINE2": "2 23455  98.7184 315.9937 0008360 278.0518  81.9706 14.14081902117160",
  "LAUNCH_DATE": "1994-12-30",
  "LAUNCH_SITE": "AIR FORCE WESTERN TEST RANGE",
  "OWNER": "UNITED STATES OF AMERICA",
  "ORBIT_TYPE": "Low Earth Orbit",
  "OPERATIONAL_STATUS": "Nonoperational"
}, {
  "OBJECT_ID": "1995-017A",
  "OBJECT_NAME": "ORBCOMM FM 1",
  "NORAD_CAT_ID": "23545",
  "OBJECT_TYPE": "PAYLOAD",
  "PERIOD": "97.931",
  "INCLINATION": "69.9716",
  "APOGEE": "663.488",
  "PERIGEE": "655.981",
  "ECCENTRICITY": "0.0005333",
  "MEAN_MOTION": "14.70418359",
  "TLE_LINE1": "1 23545U 95017A   16239.52426086  .00000332  00000-0  66839-4 0  9999",
  "TLE_LINE2": "2 23545  69.9716 332.5025 0005333   6.2902 353.8309 14.70418359138850",
  "LAUNCH_DATE": "1995-04-03",
  "LAUNCH_SITE": "AIR FORCE WESTERN TEST RANGE",
  "OWNER": "ORBITAL TELECOMMUNICATIONS SATELLITE (GLOBALSTAR)",
  "ORBIT_TYPE": "Low Earth Orbit",
  "OPERATIONAL_STATUS": "Nonoperational"
}, {
  "OBJECT_ID": "1995-017B",
  "OBJECT_NAME": "ORBCOMM FM 2",
  "NORAD_CAT_ID": "23546",
  "OBJECT_TYPE": "PAYLOAD",
  "PERIOD": "98.007",
  "INCLINATION": "69.9737",
  "APOGEE": "668.755",
  "PERIGEE": "657.997",
  "ECCENTRICITY": "0.0007639",
  "MEAN_MOTION": "14.69277814",
  "TLE_LINE1": "1 23546U 95017B   16239.55462798  .00000429  00000-0  84860-4 0  9994",
  "TLE_LINE2": "2 23546  69.9737 340.4737 0007639 357.2797   2.8304 14.69277814138734",
  "LAUNCH_DATE": "1995-04-03",
  "LAUNCH_SITE": "AIR FORCE WESTERN TEST RANGE",
  "OWNER": "ORBITAL TELECOMMUNICATIONS SATELLITE (GLOBALSTAR)",
  "ORBIT_TYPE": "Low Earth Orbit",
  "OPERATIONAL_STATUS": "Nonoperational"
}, {
  "OBJECT_ID": "1995-021A",
  "OBJECT_NAME": "ERS 2",
  "NORAD_CAT_ID": "23560",
  "OBJECT_TYPE": "PAYLOAD",
  "PERIOD": "94.774",
  "INCLINATION": "98.5174",
  "APOGEE": "509.661",
  "PERIGEE": "505.697",
  "ECCENTRICITY": "0.0002879",
  "MEAN_MOTION": "15.19391797",
  "TLE_LINE1": "1 23560U 95021A   16238.87289936 +.00002065 +00000-0 +10161-3 0  9990",
  "TLE_LINE2": "2 23560 098.5174 186.4495 0002879 207.2058 152.9023 15.19391797130490",
  "LAUNCH_DATE": "1995-04-21",
  "LAUNCH_SITE": "FRENCH GUIANA",
  "OWNER": "EUROPEAN SPACE AGENCY",
  "ORBIT_TYPE": "Low Earth Orbit",
  "OPERATIONAL_STATUS": "Nonoperational"
}, {
  "OBJECT_ID": "1995-059A",
  "OBJECT_NAME": "RADARSAT",
  "NORAD_CAT_ID": "23710",
  "OBJECT_TYPE": "PAYLOAD",
  "PERIOD": "100.656",
  "INCLINATION": "98.581",
  "APOGEE": "790.602",
  "PERIGEE": "788.836",
  "ECCENTRICITY": "0.0001232",
  "MEAN_MOTION": "14.30602492",
  "TLE_LINE1": "1 23710U 95059A   16239.51994003  .00000019  00000-0  24034-4 0  9990",
  "TLE_LINE2": "2 23710  98.5810 246.2924 0001232  73.9317 286.2001 14.30602492 86344",
  "LAUNCH_DATE": "1995-11-04",
  "LAUNCH_SITE": "AIR FORCE WESTERN TEST RANGE",
  "OWNER": "CANADA",
  "ORBIT_TYPE": "Low Earth Orbit",
  "OPERATIONAL_STATUS": "Nonoperational"
}, {
  "OBJECT_ID": "1995-072A",
  "OBJECT_NAME": "IRS 1C",
  "NORAD_CAT_ID": "23751",
  "OBJECT_TYPE": "PAYLOAD",
  "PERIOD": "101.230",
  "INCLINATION": "98.649",
  "APOGEE": "817.666",
  "PERIGEE": "816.182",
  "ECCENTRICITY": "0.0001031",
  "MEAN_MOTION": "14.22496465",
  "TLE_LINE1": "1 23751U 95072A   16239.49474507  .00000014  00000-0  25675-4 0  9996",
  "TLE_LINE2": "2 23751  98.6490 181.0121 0001031  91.9260 268.2036 14.22496465 72483",
  "LAUNCH_DATE": "1995-12-28",
  "LAUNCH_SITE": "TYURATAM MISSILE AND SPACE COMPLEX",
  "OWNER": "INDIA",
  "ORBIT_TYPE": "Low Earth Orbit",
  "OPERATIONAL_STATUS": "Nonoperational"
}, {
  "OBJECT_ID": "1995-074A",
  "OBJECT_NAME": "XTE",
  "NORAD_CAT_ID": "23757",
  "OBJECT_TYPE": "PAYLOAD",
  "PERIOD": "91.910",
  "INCLINATION": "22.9851",
  "APOGEE": "370.894",
  "PERIGEE": "365.552",
  "ECCENTRICITY": "0.0003959",
  "MEAN_MOTION": "15.66746134",
  "TLE_LINE1": "1 23757U 95074A   16238.69000867  .00010576  00000-0  89359-4 0  9992",
  "TLE_LINE2": "2 23757  22.9851  26.1719 0003959  72.4018 287.6910 15.66746134151213",
  "LAUNCH_DATE": "1995-12-30",
  "LAUNCH_SITE": "AIR FORCE EASTERN TEST RANGE",
  "OWNER": "UNITED STATES OF AMERICA",
  "ORBIT_TYPE": "Low Earth Orbit",
  "OPERATIONAL_STATUS": "Nonoperational"
}, {
  "OBJECT_ID": "1996-009A",
  "OBJECT_NAME": "GONETS D1 1",
  "NORAD_CAT_ID": "23787",
  "OBJECT_TYPE": "PAYLOAD",
  "PERIOD": "113.921",
  "INCLINATION": "82.5724",
  "APOGEE": "1413.904",
  "PERIGEE": "1398.832",
  "ECCENTRICITY": "0.0009681",
  "MEAN_MOTION": "12.64027071",
  "TLE_LINE1": "1 23787U 96009A   16239.50258624  .00000046  00000-0  19620-3 0  9995",
  "TLE_LINE2": "2 23787  82.5724  72.1893 0009681 263.6028  96.3962 12.64027071946787",
  "LAUNCH_DATE": "1996-02-19",
  "LAUNCH_SITE": "PLESETSK MISSILE AND SPACE COMPLEX",
  "OWNER": "COMMONWEALTH OF INDEPENDENT STATES",
  "ORBIT_TYPE": "Low Earth Orbit",
  "OPERATIONAL_STATUS": "Nonoperational"
}]